0 COURIER 1B
1 00058U 60013A   13282.37790482  .00000097  00000-0  21488-4 0  5022
2 00058 028.3271 248.5975 0165027 003.4703 356.6957 13.46264438609676
0 COURIER 1B
1 00058U 60013A   13284.15767229  .00000103  00000-0  30622-4 0  5032
2 00058 028.3269 239.5689 0165049 018.2046 342.4324 13.46264511609913
0 COURIER 1B
1 00058U 60013A   13285.27002335  .00000102  00000-0  29065-4 0  5045
2 00058 028.3268 233.9261 0165047 027.4053 333.5089 13.46264480610066
0 COURIER 1B
1 00058U 60013A   13286.30821374  .00000107  00000-0  37549-4 0  5054
2 00058 028.3267 228.6596 0165063 035.9965 325.1574 13.46264402610207
0 COURIER 1B
1 00058U 60013A   13288.08795668  .00000129  00000-0  71075-4 0  5064
2 00058 028.3264 219.6314 0165081 050.7220 310.7844 13.46264392610445
0 COURIER 1B
1 00058U 60013A   13289.12613134  .00000138  00000-0  83782-4 0  5076
2 00058 028.3263 214.3647 0165082 059.3116 302.3586 13.46264552610588
0 COURIER 1B
1 00058U 60013A   13290.23845327  .00000130  00000-0  72529-4 0  5081
2 00058 028.3262 208.7220 0165079 068.5126 293.2934 13.46264700610737
0 COURIER 1B
1 00058U 60013A   13291.79568821  .00000125  00000-0  63262-4 0  5093
2 00058 028.3260 200.8221 0165078 081.4026 280.5185 13.46264905610948
0 COURIER 1B
1 00058U 60013A   13293.13044581  .00000096  00000-0  18576-4 0  5102
2 00058 028.3260 194.0509 0165071 092.4459 269.4994 13.46264996611121
0 COURIER 1B
1 00058U 60013A   13294.16858040  .00000090  00000-0  99850-5 0  5119
2 00058 028.3259 188.7845 0165070 101.0369 260.8788 13.46265111611269
0 COURIER 1B
1 00058U 60013A   13295.79991689  .00000109  00000-0  38121-4 0  5121
2 00058 028.3260 180.5087 0165064 114.5423 247.2423 13.46265234611487
